0 SL-16 DEB
1 22662U 92093HZ  13281.45560566  .00011059  00000-0  23523-2 0  4979
2 22662 070.5019 098.6214 0060937 328.3508 031.3974 14.58029962 72828
0 SL-16 DEB
1 22662U 92093HZ  13281.86723677  .00026297  00000-0  55610-2 0  4981
2 22662 070.5019 097.6707 0060994 327.7191 032.0223 14.58039185 72887
0 SL-16 DEB
1 22662U 92093HZ  13282.89629485  .00018871  00000-0  39947-2 0  4992
2 22662 070.5021 095.2942 0061012 326.1420 033.5832 14.58084992 73031
0 SL-16 DEB
1 22662U 92093HZ  13283.51372137  .00023773  00000-0  50328-2 0  5018
2 22662 070.5000 093.8683 0058679 321.4663 038.2784 14.58090176 73125
0 SL-16 DEB
1 22662U 92093HZ  13283.85672439  .00018114  00000-0  38332-2 0  5006
2 22662 070.5019 093.0761 0061058 324.5905 035.1188 14.58111168 73176
0 SL-16 DEB
1 22662U 92093HZ  13285.43453654  .00015628  00000-0  33064-2 0  5013
2 22662 070.5014 089.4318 0061212 322.0369 037.6465 14.58158402 73400
0 SL-16 DEB
1 22662U 92093HZ  13287.49247859  .00018050  00000-0  38100-2 0  5028
2 22662 070.5010 084.6780 0061349 319.0008 040.6529 14.58215390 73701
0 SL-16 DEB
1 22662U 92093HZ  13288.45281722  .00027165  00000-0  57136-2 0  5030
2 22662 070.5011 082.4596 0061347 317.7615 041.8809 14.58264251 73849
0 SL-16 DEB
1 22662U 92093HZ  13289.41312665  .00024216  00000-0  50917-2 0  5043
2 22662 070.5013 080.2416 0061599 316.0897 043.5358 14.58301461 73989
0 SL-16 DEB
1 22662U 92093HZ  13290.51059525  .00026412  00000-0  55442-2 0  5058
2 22662 070.5018 077.7069 0061909 314.4502 045.1584 14.58340836 74146
0 SL-16 DEB
1 22662U 92093HZ  13291.05931575  .00022430  00000-0  47095-2 0  5064
2 22662 070.5006 076.4383 0062179 313.2217 046.3742 14.58364998 74221
0 SL-16 DEB
1 22662U 92093HZ  13292.49967322  .00022246  00000-0  46647-2 0  5070
2 22662 070.5015 073.1103 0062401 311.0937 048.4825 14.58419382 74434
0 SL-16 DEB
1 22662U 92093HZ  13293.80280366  .00025611  00000-0  53593-2 0  5080
2 22662 070.5019 070.0993 0062527 309.3075 050.2532 14.58467016 74627
0 SL-16 DEB
1 22662U 92093HZ  13295.44879847  .00029724  00000-0  62028-2 0  5093
2 22662 070.5017 066.2959 0062851 306.8257 052.7129 14.58537544 74867
